[{"OBJECT_NAME":"GRUS-1A","OBJECT_ID":"2018-111Q","EPOCH":"2026-03-09T23:18:05.956128","MEAN_MOTION":14.98893897,"ECCENTRICITY":0.00097781,"INCLINATION":97.4655,"RA_OF_ASC_NODE":300.3513,"ARG_OF_PERICENTER":128.8058,"MEAN_ANOMALY":231.404,"EPHEMERIS_TYPE":0,"CLASSIFICATION_TYPE":"U","NORAD_CAT_ID":43890,"ELEMENT_SET_NO":999,"REV_AT_EPOCH":39284,"BSTAR":0.00022419467,"MEAN_MOTION_DOT":2.655e-5,"MEAN_MOTION_DDOT":0},{"OBJECT_NAME":"STARLINK-5300","OBJECT_ID":"2023-021BA","EPOCH":"2026-03-09T14:26:37.309344","MEAN_MOTION":14.98354952,"ECCENTRICITY":0.000317,"INCLINATION":70.0014,"RA_OF_ASC_NODE":144.7179,"ARG_OF_PERICENTER":271.1144,"MEAN_ANOMALY":88.9652,"EPHEMERIS_TYPE":0,"CLASSIFICATION_TYPE":"U","NORAD_CAT_ID":55676,"ELEMENT_SET_NO":999,"REV_AT_EPOCH":16976,"BSTAR":0.00058231,"MEAN_MOTION_DOT":6.866e-5,"MEAN_MOTION_DDOT":0}]
